ONEWEB-0517             
1 54135U 22138Y   23264.17899828  .00000186  00000+0  43140-3 0  9992
2 54135  87.9251 143.9952 0001975  88.4637 271.6722 13.19727261 44939
ONEWEB-0518             
1 54136U 22138Z   23264.72865998  .00000056  00000+0  10698-3 0  9993
2 54136  87.9250 143.8859 0001680  84.1062 276.0262 13.19728933 45871
ONEWEB-0519             
1 54137U 22138AA  23264.67812654  .00000003  00000+0 -25887-4 0  9999
2 54137  87.9251 143.8944 0002056  90.2316 269.9052 13.19728175 45872
ONEWEB-0520             
1 54138U 22138AB  23264.18214805 -.00000133  00000+0 -36540-3 0  9992
2 54138  87.9206 143.9963 0002368  84.2873 275.8530 13.19726558 44927
ONEWEB-0521             
1 54139U 22138AC  23264.67021882  .00000009  00000+0 -10630-4 0  9992
2 54139  87.9249 143.8948 0001520  84.6175 275.5131 13.19724578 45830
ONEWEB-0522             
1 54140U 22138AD  23264.64969774  .00000001  00000+0 -31049-4 0  9991
2 54140  87.9249 143.9011 0001898  78.0541 282.0805 13.19727773 45848
ONEWEB-0523             
1 54141U 22138AE  23264.64743545  .00000015  00000+0  58342-5 0  9998
2 54141  87.9171 113.4411 0001001  40.5261 319.5946 13.20771352 48230
ONEWEB-0524             
1 54142U 22138AF  23264.55904841 -.00000015  00000+0 -67770-4 0  9993
2 54142  87.9201 113.4357 0002235  50.1188 310.0142 13.20769732 47354
